start=new Date('2021-09-22T00:00:00.000Z').valueOf();
sats=[{"CENTER_NAME":"EARTH","ECCENTRICITY":"0.00021680","LAUNCH_DATE":"2021-02-04","PERIOD":"95.592","MEAN_ELEMENT_THEORY":"SGP4","SITE":"AFETR","EPHEMERIS_TYPE":"0","OBJECT_TYPE":"PAYLOAD","OBJECT_NAME":"STARLINK-2003","ELEMENT_SET_NO":"999","INCLINATION":"53.0707","ARG_OF_PERICENTER":"75.8012","EPOCH":"2021-09-21T21:25:31.066752","REF_FRAME":"TEME","MEAN_MOTION_DDOT":"0.0000000000000","MEAN_MOTION_DOT":"-0.00000760","MEAN_MOTION":"15.06399054","GP_ID":"185188348","FILE":"3122258","PERIAPSIS":"545.715","SEMIMAJOR_AXIS":"6925.351","TIME_SYSTEM":"UTC","CLASSIFICATION_TYPE":"U","NORAD_CAT_ID":"47598","MEAN_ANOMALY":"284.3218","TLE_LINE1":"1 47598U 21009BC  21264.89272068 -.00000760  00000-0 -32119-4 0  9997","DECAY_DATE":null,"REV_AT_EPOCH":"3529","RCS_SIZE":"LARGE","APOAPSIS":"548.718","RA_OF_ASC_NODE":"127.9937","COUNTRY_CODE":"US","BSTAR":"-0.00003211900000","TLE_LINE2":"2 47598  53.0707 127.9937 0002168  75.8012 284.3218 15.06399054 35294","OBJECT_ID":"2021-009BC"},{"APOAPSIS":"548.813","RCS_SIZE":"LARGE","REV_AT_EPOCH":"3542","OBJECT_ID":"2021-009BD","TLE_LINE2":"2 47599  53.0543 118.0941 0002284  76.6584 283.4659 15.06394257 35425","BSTAR":"-0.00004729700000","RA_OF_ASC_NODE":"118.0941","COUNTRY_CODE":"US","MEAN_ANOMALY":"283.4659","CLASSIFICATION_TYPE":"U","NORAD_CAT_ID":"47599","PERIAPSIS":"545.649","TIME_SYSTEM":"UTC","SEMIMAJOR_AXIS":"6925.366","DECAY_DATE":null,"TLE_LINE1":"1 47599U 21009BD  21264.88258547 -.00000986  00000-0 -47297-4 0  9996","INCLINATION":"53.0543","ELEMENT_SET_NO":"999","OBJECT_NAME":"STARLINK-2004","OBJECT_TYPE":"PAYLOAD","EPHEMERIS_TYPE":"0","FILE":"3122258","MEAN_MOTION":"15.06394257","GP_ID":"185189096","REF_FRAME":"TEME","EPOCH":"2021-09-21T21:10:55.384608","MEAN_MOTION_DDOT":"0.0000000000000","MEAN_MOTION_DOT":"-0.00000986","ARG_OF_PERICENTER":"76.6584","LAUNCH_DATE":"2021-02-04","ECCENTRICITY":"0.00022840","CENTER_NAME":"EARTH","SITE":"AFETR","MEAN_ELEMENT_THEORY":"SGP4","PERIOD":"95.593"},{"REV_AT_EPOCH":"3540","APOAPSIS":"554.686","RCS_SIZE":"LARGE","COUNTRY_CODE":"US","RA_OF_ASC_NODE":"118.8348","OBJECT_ID":"2021-009BE","BSTAR":"-0.00004537100000","TLE_LINE2":"2 47600  53.0645 118.8348 0010724  92.9546 267.2670 15.06385112 35408","SEMIMAJOR_AXIS":"6925.394","TIME_SYSTEM":"UTC","PERIAPSIS":"539.832","MEAN_ANOMALY":"267.2670","NORAD_CAT_ID":"47600","CLASSIFICATION_TYPE":"U","TLE_LINE1":"1 47600U 21009BE  21264.71211260 -.00000962  00000-0 -45371-4 0  9997","DECAY_DATE":null,"OBJECT_TYPE":"PAYLOAD","EPHEMERIS_TYPE":"0","INCLINATION":"53.0645","ELEMENT_SET_NO":"999","OBJECT_NAME":"STARLINK-2005","MEAN_MOTION_DOT":"-0.00000962","MEAN_MOTION_DDOT":"0.0000000000000","REF_FRAME":"TEME","EPOCH":"2021-09-21T17:05:26.528640","ARG_OF_PERICENTER":"92.9546","FILE":"3122258","GP_ID":"185189350","MEAN_MOTION":"15.06385112","CENTER_NAME":"EARTH","LAUNCH_DATE":"2021-02-04","ECCENTRICITY":"0.00107240","PERIOD":"95.593","MEAN_ELEMENT_THEORY":"SGP4","SITE":"AFETR"},{"OBJECT_TYPE":"PAYLOAD","EPHEMERIS_TYPE":"0","ELEMENT_SET_NO":"999","INCLINATION":"53.0554","OBJECT_NAME":"STARLINK-2006","MEAN_MOTION_DDOT":"0.0000000000000","MEAN_MOTION_DOT":"0.00000875","REF_FRAME":"TEME","EPOCH":"2021-09-21T21:16:12.673920","ARG_OF_PERICENTER":"76.0848","FILE":"3122258","GP_ID":"185190098","MEAN_MOTION":"15.06404784","CENTER_NAME":"EARTH","LAUNCH_DATE":"2021-02-04","ECCENTRICITY":"0.00022340","PERIOD":"95.592","MEAN_ELEMENT_THEORY":"SGP4","SITE":"AFETR","REV_AT_EPOCH":"3542","APOAPSIS":"548.746","RCS_SIZE":"LARGE","COUNTRY_CODE":"US","RA_OF_ASC_NODE":"118.0782","OBJECT_ID":"2021-009BF","BSTAR":"0.00007762900000","TLE_LINE2":"2 47601  53.0554 118.0782 0002234  76.0848 284.0389 15.06404784 35420","TIME_SYSTEM":"UTC","SEMIMAJOR_AXIS":"6925.334","PERIAPSIS":"545.652","MEAN_ANOMALY":"284.0389","NORAD_CAT_ID":"47601","CLASSIFICATION_TYPE":"U","TLE_LINE1":"1 47601U 21009BF  21264.88625780  .00000875  00000-0  77629-4 0  9994","DECAY_DATE":null},{"SEMIMAJOR_AXIS":"6925.362","TIME_SYSTEM":"UTC","PERIAPSIS":"545.821","MEAN_ANOMALY":"292.3274","NORAD_CAT_ID":"47602","CLASSIFICATION_TYPE":"U","TLE_LINE1":"1 47602U 21009BG  21264.90745985 -.00000921  00000-0 -42951-4 0  9992","DECAY_DATE":null,"REV_AT_EPOCH":"3528","APOAPSIS":"548.632","RCS_SIZE":"LARGE","COUNTRY_CODE":"US","RA_OF_ASC_NODE":"127.9965","OBJECT_ID":"2021-009BG","TLE_LINE2":"2 47602  53.0514 127.9965 0002030  67.7930 292.3274 15.06395734 35285","BSTAR":"-0.00004295100000","CENTER_NAME":"EARTH","LAUNCH_DATE":"2021-02-04","ECCENTRICITY":"0.00020300","PERIOD":"95.592","MEAN_ELEMENT_THEORY":"SGP4","SITE":"AFETR","OBJECT_TYPE":"PAYLOAD","EPHEMERIS_TYPE":"0","INCLINATION":"53.0514","ELEMENT_SET_NO":"999","OBJECT_NAME":"STARLINK-2007","MEAN_MOTION_DOT":"-0.00000921","MEAN_MOTION_DDOT":"0.0000000000000","REF_FRAME":"TEME","EPOCH":"2021-09-21T21:46:44.531040","ARG_OF_PERICENTER":"67.7930","FILE":"3122258","GP_ID":"185188846","MEAN_MOTION":"15.06395734"},{"RA_OF_ASC_NODE":"161.5030","COUNTRY_CODE":"US","OBJECT_ID":"2021-009BH","BSTAR":"0.00009188400000","TLE_LINE2":"2 47603  53.0547 161.5030 0002101  72.4448 287.6770 15.06400392 35347","REV_AT_EPOCH":"3534","APOAPSIS":"548.667","RCS_SIZE":"LARGE","TLE_LINE1":"1 47603U 21009BH  21264.12327124  .00001087  00000-0  91884-4 0  9999","DECAY_DATE":null,"PERIAPSIS":"545.757","TIME_SYSTEM":"UTC","SEMIMAJOR_AXIS":"6925.347","MEAN_ANOMALY":"287.6770","CLASSIFICATION_TYPE":"U","NORAD_CAT_ID":"47603","EPOCH":"2021-09-21T02:57:30.635136","REF_FRAME":"TEME","MEAN_MOTION_DOT":"0.00001087","MEAN_MOTION_DDOT":"0.0000000000000","ARG_OF_PERICENTER":"72.4448","FILE":"3122081","MEAN_MOTION":"15.06400392","GP_ID":"185165116","OBJECT_TYPE":"PAYLOAD","EPHEMERIS_TYPE":"0","ELEMENT_SET_NO":"999","INCLINATION":"53.0547","OBJECT_NAME":"STARLINK-2008","PERIOD":"95.592","SITE":"AFETR","MEAN_ELEMENT_THEORY":"SGP4","CENTER_NAME":"EARTH","LAUNCH_DATE":"2021-02-04","ECCENTRICITY":"0.00021010"},{"MEAN_ANOMALY":"293.6527","NORAD_CAT_ID":"47604","CLASSIFICATION_TYPE":"U","TIME_SYSTEM":"UTC","SEMIMAJOR_AXIS":"6925.379","PERIAPSIS":"545.674","DECAY_DATE":null,"TLE_LINE1":"1 47604U 21009BJ  21264.91483996 -.00000620  00000-0 -22734-4 0  9999","APOAPSIS":"548.814","RCS_SIZE":"LARGE","REV_AT_EPOCH":"3529","OBJECT_ID":"2021-009BJ","BSTAR":"-0.00002273400000","TLE_LINE2":"2 47604  53.0551 127.9629 0002267  66.4700 293.6527 15.06389975 35294","COUNTRY_CODE":"US","RA_OF_ASC_NODE":"127.9629","LAUNCH_DATE":"2021-02-04","ECCENTRICITY":"0.00022670","CENTER_NAME":"EARTH","SITE":"AFETR","MEAN_ELEMENT_THEORY":"SGP4","PERIOD":"95.593","ELEMENT_SET_NO":"999","INCLINATION":"53.0551","OBJECT_NAME":"STARLINK-2021","OBJECT_TYPE":"PAYLOAD","EPHEMERIS_TYPE":"0","FILE":"3122258","GP_ID":"185189848","MEAN_MOTION":"15.06389975","MEAN_MOTION_DOT":"-0.00000620","MEAN_MOTION_DDOT":"0.0000000000000","EPOCH":"2021-09-21T21:57:22.172544","REF_FRAME":"TEME","ARG_OF_PERICENTER":"66.4700"},{"PERIOD":"95.593","MEAN_ELEMENT_THEORY":"SGP4","SITE":"AFETR","CENTER_NAME":"EARTH","LAUNCH_DATE":"2021-02-04","ECCENTRICITY":"0.00023540","MEAN_MOTION_DDOT":"0.0000000000000","MEAN_MOTION_DOT":"0.00000516","REF_FRAME":"TEME","EPOCH":"2021-09-21T21:52:02.132256","ARG_OF_PERICENTER":"66.4464","FILE":"3122258","GP_ID":"185189601","MEAN_MOTION":"15.06393415","OBJECT_TYPE":"PAYLOAD","EPHEMERIS_TYPE":"0","ELEMENT_SET_NO":"999","INCLINATION":"53.0502","OBJECT_NAME":"STARLINK-2023","TLE_LINE1":"1 47605U 21009BK  21264.91113579  .00000516  00000-0  53545-4 0  9993","DECAY_DATE":null,"SEMIMAJOR_AXIS":"6925.369","TIME_SYSTEM":"UTC","PERIAPSIS":"545.604","MEAN_ANOMALY":"293.6772","NORAD_CAT_ID":"47605","CLASSIFICATION_TYPE":"U","COUNTRY_CODE":"US","RA_OF_ASC_NODE":"127.9831","OBJECT_ID":"2021-009BK","TLE_LINE2":"2 47605  53.0502 127.9831 0002354  66.4464 293.6772 15.06393415 35285","BSTAR":"0.00005354500000","REV_AT_EPOCH":"3528","APOAPSIS":"548.864","RCS_SIZE":"LARGE"},{"LAUNCH_DATE":"2021-02-04","ECCENTRICITY":"0.00024900","CENTER_NAME":"EARTH","MEAN_ELEMENT_THEORY":"SGP4","SITE":"AFETR","PERIOD":"95.592","INCLINATION":"53.0535","ELEMENT_SET_NO":"999","OBJECT_NAME":"STARLINK-2024","OBJECT_TYPE":"PAYLOAD","EPHEMERIS_TYPE":"0","FILE":"3122258","GP_ID":"185188349","MEAN_MOTION":"15.06398131","MEAN_MOTION_DOT":"-0.00001350","MEAN_MOTION_DDOT":"0.0000000000000","EPOCH":"2021-09-21T22:02:40.183296","REF_FRAME":"TEME","ARG_OF_PERICENTER":"73.2871","MEAN_ANOMALY":"286.8391","NORAD_CAT_ID":"47606","CLASSIFICATION_TYPE":"U","TIME_SYSTEM":"UTC","SEMIMAJOR_AXIS":"6925.354","PERIAPSIS":"545.495","DECAY_DATE":null,"TLE_LINE1":"1 47606U 21009BL  21264.91852064 -.00001350  00000-0 -71687-4 0  9999","APOAPSIS":"548.944","RCS_SIZE":"LARGE","REV_AT_EPOCH":"3529","OBJECT_ID":"2021-009BL","BSTAR":"-0.00007168700000","TLE_LINE2":"2 47606  53.0535 127.9303 0002490  73.2871 286.8391 15.06398131 35297","COUNTRY_CODE":"US","RA_OF_ASC_NODE":"127.9303"},{"DECAY_DATE":null,"TLE_LINE1":"1 47607U 21009BM  21264.89640507 -.00000617  00000-0 -22485-4 0  9991","NORAD_CAT_ID":"47607","CLASSIFICATION_TYPE":"U","MEAN_ANOMALY":"287.6637","TIME_SYSTEM":"UTC","SEMIMAJOR_AXIS":"6925.367","PERIAPSIS":"545.752","BSTAR":"-0.00002248500000","TLE_LINE2":"2 47607  53.0549 128.0537 0002137  72.4586 287.6637 15.06394117 35287","OBJECT_ID":"2021-009BM","COUNTRY_CODE":"US","RA_OF_ASC_NODE":"128.0537","RCS_SIZE":"LARGE","APOAPSIS":"548.712","REV_AT_EPOCH":"3528","SITE":"AFETR","MEAN_ELEMENT_THEORY":"SGP4","PERIOD":"95.593","ECCENTRICITY":"0.00021370","LAUNCH_DATE":"2021-02-04","CENTER_NAME":"EARTH","GP_ID":"185189097","MEAN_MOTION":"15.06394117","FILE":"3122258","ARG_OF_PERICENTER":"72.4586","MEAN_MOTION_DDOT":"0.0000000000000","MEAN_MOTION_DOT":"-0.00000617","REF_FRAME":"TEME","EPOCH":"2021-09-21T21:30:49.398048","OBJECT_NAME":"STARLINK-2025","INCLINATION":"53.0549","ELEMENT_SET_NO":"999","EPHEMERIS_TYPE":"0","OBJECT_TYPE":"PAYLOAD"}];
